NORAD_CAT_ID,OBJECT_NAME,OBJECT_TYPE,EPOCH,MEAN_MOTION,ECCENTRICITY,INCLINATION,RA_OF_ASC_NODE,ARG_OF_PERICENTER,MEAN_ANOMALY,BSTAR,MEAN_MOTION_DOT,MEAN_MOTION_DDOT,TLE_LINE0,TLE_LINE1,TLE_LINE2,SEMIMAJOR_AXIS,PERIOD,APOGEE,PERIGEE,DECAYED
54202.0,STARLINK-5205,PAYLOAD,2024-03-30 20:43:30,15.08855138,0.0001801,53.2179,295.85,100.0853,260.0342,0.001367,0.00021544,0.0,0 STARLINK-5205,1 54202U 22141AX  24090.86354609  .00021544  00000-0  13670-2 0  9994,2 54202  53.2179 295.8500 0001801 100.0853 260.0342 15.08855138 78992,6917.834,95.437,540.945,538.453,0.0
54202.0,STARLINK-5205,PAYLOAD,2024-03-31 12:37:21,15.08850137,0.000168,53.2156,292.8772,104.6521,255.4658,0.00056103,8.655e-05,0.0,0 STARLINK-5205,1 54202U 22141AX  24091.52594313  .00008655  00000-0  56103-3 0  9993,2 54202  53.2156 292.8772 0001680 104.6521 255.4658 15.08850137 79322,6917.849,95.437,540.877,538.552,0.0
54202.0,STARLINK-5205,PAYLOAD,2024-03-31 20:34:16,15.08850577,0.0001575,53.2172,291.3902,102.3508,257.7661,0.00011041,1.47e-05,0.0,0 STARLINK-5205,1 54202U 22141AX  24091.85714100  .00001470  00000-0  11041-3 0  9997,2 54202  53.2172 291.3902 0001575 102.3508 257.7661 15.08850577 79149,6917.848,95.437,540.803,538.623,0.0
54202.0,STARLINK-5205,PAYLOAD,2024-04-01 12:28:08,15.08834338,0.0001504,53.2168,288.4167,92.8409,267.2755,-6.732e-05,-1.359e-05,0.0,0 STARLINK-5205,1 54202U 22141AX  24092.51954704 -.00001359  00000-0 -67320-4 0  9997,2 54202  53.2168 288.4167 0001504  92.8409 267.2755 15.08834338 79472,6917.898,95.438,540.803,538.722,0.0
54202.0,STARLINK-5205,PAYLOAD,2024-04-02 12:18:56,15.08838686,0.0001347,53.2165,283.9563,87.9845,272.1302,0.00014057,1.95e-05,0.0,0 STARLINK-5205,1 54202U 22141AX  24093.51315008  .00001950  00000-0  14057-3 0  9999,2 54202  53.2165 283.9563 0001347  87.9845 272.1302 15.08838686 79397,6917.884,95.438,540.681,538.818,0.0
54202.0,STARLINK-5205,PAYLOAD,2024-04-02 18:40:28,15.08841305,0.0001615,53.218,282.7662,91.5401,268.5776,0.0002088,3.037e-05,0.0,0 STARLINK-5205,1 54202U 22141AX  24093.77811067  .00003037  00000-0  20880-3 0  9992,2 54202  53.2180 282.7662 0001615  91.5401 268.5776 15.08841305 79664,6917.876,95.437,540.859,538.624,0.0
54202.0,STARLINK-5205,PAYLOAD,2024-04-02 20:15:51,15.08841642,0.0001471,53.2168,282.4692,83.209,276.907,0.00017592,2.513e-05,0.0,0 STARLINK-5205,1 54202U 22141AX  24093.84435011  .00002513  00000-0  17592-3 0  9995,2 54202  53.2168 282.4692 0001471  83.2090 276.9070 15.08841642 79442,6917.875,95.437,540.758,538.723,0.0
54202.0,STARLINK-5205,PAYLOAD,2024-04-03 12:09:43,15.08839307,0.0001397,53.2164,279.4949,83.1917,276.9234,0.0002472,3.648e-05,0.0,0 STARLINK-5205,1 54202U 22141AX  24094.50675314  .00003648  00000-0  24720-3 0  9992,2 54202  53.2164 279.4949 0001397  83.1917 276.9234 15.08839307 79541,6917.883,95.438,540.714,538.781,0.0
54202.0,STARLINK-5205,PAYLOAD,2024-04-03 18:31:16,15.0884004,0.000142,53.2163,278.3056,82.8444,277.271,0.00019781,2.862e-05,0.0,0 STARLINK-5205,1 54202U 22141AX  24094.77171320  .00002862  00000-0  19781-3 0  9997,2 54202  53.2163 278.3056 0001420  82.8444 277.2710 15.08840040 79814,6917.88,95.438,540.728,538.763,0.0
54202.0,STARLINK-5205,PAYLOAD,2024-04-04 05:38:57,15.08844461,0.0001355,53.2156,276.2238,83.5095,276.6051,0.00019905,2.882e-05,0.0,0 STARLINK-5205,1 54202U 22141AX  24095.23539091  .00002882  00000-0  19905-3 0  9992,2 54202  53.2156 276.2238 0001355  83.5095 276.6051 15.08844461 79656,6917.867,95.437,540.669,538.794,0.0
54202.0,STARLINK-5205,PAYLOAD,2024-04-04 18:22:02,15.08846375,0.0001425,53.216,273.8435,89.1503,270.9652,0.00014837,2.075e-05,0.0,0 STARLINK-5205,1 54202U 22141AX  24095.76530922  .00002075  00000-0  14837-3 0  9997,2 54202  53.2160 273.8435 0001425  89.1503 270.9652 15.08846375 79736,6917.861,95.437,540.712,538.74,0.0
54202.0,STARLINK-5205,PAYLOAD,2024-04-05 18:12:49,15.0884638,0.0001434,53.2158,269.3813,94.8748,265.2407,0.0001448,2.018e-05,0.0,0 STARLINK-5205,1 54202U 22141AX  24096.75890647  .00002018  00000-0  14480-3 0  9991,2 54202  53.2158 269.3813 0001434  94.8748 265.2407 15.08846380 80112,6917.861,95.437,540.718,538.734,0.0
54202.0,STARLINK-5205,PAYLOAD,2024-04-05 21:23:35,15.088471,0.0001437,53.2162,268.7872,95.1615,264.9541,0.0001248,1.699e-05,0.0,0 STARLINK-5205,1 54202U 22141AX  24096.89138564  .00001699  00000-0  12480-3 0  9991,2 54202  53.2162 268.7872 0001437  95.1615 264.9541 15.08847100 79906,6917.859,95.437,540.718,538.73,0.0
54202.0,STARLINK-5205,PAYLOAD,2024-04-06 11:42:04,15.08839771,0.000146,53.2161,266.1104,95.8004,264.3155,5.8474e-06,-1.95e-06,0.0,0 STARLINK-5205,1 54202U 22141AX  24097.48754858 -.00000195  00000-0  58474-5 0  9993,2 54202  53.2161 266.1104 0001460  95.8004 264.3155 15.08839771 80227,6917.881,95.438,540.756,538.736,0.0
54202.0,STARLINK-5205,PAYLOAD,2024-04-06 18:03:36,15.08842284,0.00014,53.2167,264.9235,87.7488,272.3664,6.5092e-05,7.48e-06,0.0,0 STARLINK-5205,1 54202U 22141AX  24097.75250855  .00000748  00000-0  65092-4 0  9997,2 54202  53.2167 264.9235 0001400  87.7488 272.3664 15.08842284 80030,6917.873,95.437,540.707,538.77,0.0
54202.0,STARLINK-5205,PAYLOAD,2024-04-07 11:32:51,15.08834058,0.000136,53.2153,261.6539,97.2807,262.834,9.0969e-05,1.16e-05,0.0,0 STARLINK-5205,1 54202U 22141AX  24098.48115178  .00001160  00000-0  90969-4 0  9996,2 54202  53.2153 261.6539 0001360  97.2807 262.8340 15.08834058 80149,6917.899,95.438,540.704,538.823,0.0
54202.0,STARLINK-5205,PAYLOAD,2024-04-07 17:54:23,15.08842001,0.0001316,53.2158,260.4635,98.6467,261.4674,3.6862e-05,2.99e-06,0.0,0 STARLINK-5205,1 54202U 22141AX  24098.74611027  .00000299  00000-0  36862-4 0  9993,2 54202  53.2158 260.4635 0001316  98.6467 261.4674 15.08842001 80418,6917.874,95.437,540.65,538.829,0.0
54202.0,STARLINK-5205,PAYLOAD,2024-04-08 03:26:42,15.08840536,0.0001271,53.2152,258.6792,89.5087,270.6051,3.7118e-05,3.03e-06,0.0,0 STARLINK-5205,1 54202U 22141AX  24099.14355164  .00000303  00000-0  37118-4 0  9996,2 54202  53.2152 258.6792 0001271  89.5087 270.6051 15.08840536 80245,6917.879,95.438,540.623,538.864,0.0
54202.0,STARLINK-5205,PAYLOAD,2024-04-08 20:55:57,15.08841194,0.0001335,53.2126,255.4071,88.5028,271.6117,0.00011048,1.471e-05,0.0,0 STARLINK-5205,1 54202U 22141AX  24099.87219092  .00001471  00000-0  11048-3 0  9995,2 54202  53.2126 255.4071 0001335  88.5028 271.6117 15.08841194 80353,6917.877,95.437,540.665,538.818,0.0
54202.0,STARLINK-5205,PAYLOAD,2024-04-09 03:17:29,15.08839498,0.0001363,53.2129,254.2172,86.9287,273.1861,0.00010906,1.448e-05,0.0,0 STARLINK-5205,1 54202U 22141AX  24100.13715238  .00001448  00000-0  10906-3 0  9996,2 54202  53.2129 254.2172 0001363  86.9287 273.1861 15.08839498 80622,6917.882,95.438,540.69,538.804,0.0
54202.0,STARLINK-5205,PAYLOAD,2024-04-09 09:39:02,15.088401,0.0001315,53.2126,253.0274,86.0473,274.0669,0.00012361,1.68e-05,0.0,0 STARLINK-5205,1 54202U 22141AX  24100.40211185  .00001680  00000-0  12361-3 0  9993,2 54202  53.2126 253.0274 0001315  86.0473 274.0669 15.08840100 80431,6917.88,95.438,540.655,538.835,0.0
54202.0,STARLINK-5205,PAYLOAD,2024-04-10 09:29:49,15.0883975,0.0001883,53.212,248.5662,88.405,271.7158,5.1107e-05,5.25e-06,0.0,0 STARLINK-5205,1 54202U 22141AX  24101.39571296  .00000525  00000-0  51107-4 0  9993,2 54202  53.2120 248.5662 0001883  88.4050 271.7158 15.08839750 80810,6917.881,95.438,541.049,538.444,0.0
54202.0,STARLINK-5205,PAYLOAD,2024-04-10 15:51:22,15.08837795,0.0001883,53.2126,247.3768,89.0393,271.0815,2.878e-05,1.7e-06,0.0,0 STARLINK-5205,1 54202U 22141AX  24101.66067436  .00000170  00000-0  28780-4 0  9996,2 54202  53.2126 247.3768 0001883  89.0393 271.0815 15.08837795 80626,6917.887,95.438,541.055,538.449,0.0
54202.0,STARLINK-5205,PAYLOAD,2024-04-11 02:59:04,15.08835288,0.0001847,53.2128,245.2958,86.2649,273.8554,2.346e-05,8.5e-07,0.0,0 STARLINK-5205,1 54202U 22141AX  24102.12436090  .00000085  00000-0  23460-4 0  9999,2 54202  53.2128 245.2958 0001847  86.2649 273.8554 15.08835288 80927,6917.895,95.438,541.038,538.482,0.0
54202.0,STARLINK-5205,PAYLOAD,2024-04-11 09:20:36,15.08840764,0.0001449,53.2151,244.1054,92.1692,267.9466,8.2116e-05,1.019e-05,0.0,0 STARLINK-5205,1 54202U 22141AX  24102.38931493  .00001019  00000-0  82116-4 0  9995,2 54202  53.2151 244.1054 0001449  92.1692 267.9466 15.08840764 80965,6917.878,95.438,540.745,538.741,0.0
54202.0,STARLINK-5205,PAYLOAD,2024-04-11 14:06:45,15.08848582,0.000148,53.2148,243.2136,91.1795,268.9367,0.00010005,1.305e-05,0.0,0 STARLINK-5205,1 54202U 22141AX  24102.58802941  .00001305  00000-0  10005-3 0  9997,2 54202  53.2148 243.2136 0001480  91.1795 268.9367 15.08848582 80765,6917.854,95.437,540.743,538.695,0.0
54202.0,STARLINK-5205,PAYLOAD,2024-04-11 15:42:09,15.0884611,0.0001412,53.2147,242.9161,91.1677,268.9477,0.00015943,2.251e-05,0.0,0 STARLINK-5205,1 54202U 22141AX  24102.65427173  .00002251  00000-0  15943-3 0  9992,2 54202  53.2147 242.9161 0001412  91.1677 268.9477 15.08846110 80770,6917.862,95.437,540.704,538.75,0.0
54202.0,STARLINK-5205,PAYLOAD,2024-04-12 12:22:10,15.08840322,0.0001544,53.2173,239.0528,94.054,266.0629,0.00015626,2.2e-05,0.0,0 STARLINK-5205,1 54202U 22141AX  24103.51539632  .00002200  00000-0  15626-3 0  9994,2 54202  53.2173 239.0528 0001544  94.0540 266.0629 15.08840322 81138,6917.879,95.438,540.813,538.676,0.0
54202.0,STARLINK-5205,PAYLOAD,2024-04-12 13:57:33,15.0884029,0.0001479,53.2174,238.7555,94.5449,265.5712,0.00016311,2.309e-05,0.0,0 STARLINK-5205,1 54202U 22141AX  24103.58163620  .00002309  00000-0  16311-3 0  9993,2 54202  53.2174 238.7555 0001479  94.5449 265.5712 15.08840290 80911,6917.88,95.438,540.768,538.721,0.0
54202.0,STARLINK-5205,PAYLOAD,2024-04-13 12:12:58,15.08817817,0.0001301,53.2175,234.5927,100.6681,259.4457,0.00064258,9.947e-05,0.0,0 STARLINK-5205,1 54202U 22141AX  24104.50901016  .00009947  00000-0  64258-3 0  9993,2 54202  53.2175 234.5927 0001301 100.6681 259.4457 15.08817817 81288,6917.948,95.439,540.713,538.913,0.0
